NORAD_CAT_ID,OBJECT_NAME,OBJECT_TYPE,EPOCH,MEAN_MOTION,ECCENTRICITY,INCLINATION,RA_OF_ASC_NODE,ARG_OF_PERICENTER,MEAN_ANOMALY,BSTAR,MEAN_MOTION_DOT,MEAN_MOTION_DDOT,TLE_LINE0,TLE_LINE1,TLE_LINE2,SEMIMAJOR_AXIS,PERIOD,APOGEE,PERIGEE,DECAYED
51891.0,STARLINK-3549,PAYLOAD,2023-10-28 05:43:30,15.08837595,0.0001808,53.2165,275.3065,104.4798,255.6395,-6.2038e-07,-2.98e-06,0.0,0 STARLINK-3549,1 51891U 22022AR  23301.23855213 -.00000298  00000-0 -62038-6 0  9996,2 51891  53.2165 275.3065 0001808 104.4798 255.6395 15.08837595 92946,6917.888,95.438,541.003,538.502,0.0
51891.0,STARLINK-3549,PAYLOAD,2023-10-28 15:15:49,15.08839208,0.0001718,53.2163,273.5215,99.4663,260.6524,5.3258e-05,5.6e-06,0.0,0 STARLINK-3549,1 51891U 22022AR  23301.63599386  .00000560  00000-0  53258-4 0  9998,2 51891  53.2163 273.5215 0001718  99.4663 260.6524 15.08839208 93006,6917.883,95.438,540.936,538.559,0.0
51891.0,STARLINK-3549,PAYLOAD,2023-10-29 07:09:40,15.08850291,0.0001624,53.2164,270.5454,104.7475,255.3697,0.00014611,2.039e-05,0.0,0 STARLINK-3549,1 51891U 22022AR  23302.29838965  .00002039  00000-0  14611-3 0  9992,2 51891  53.2164 270.5454 0001624 104.7475 255.3697 15.08850291 93104,6917.849,95.437,540.837,538.59,0.0
51891.0,STARLINK-3549,PAYLOAD,2023-10-29 21:28:09,15.08839054,0.0002155,53.2171,267.8714,87.9262,272.1977,0.00014774,2.064e-05,0.0,0 STARLINK-3549,1 51891U 22022AR  23302.89455976  .00002064  00000-0  14774-3 0  9993,2 51891  53.2171 267.8714 0002155  87.9262 272.1977 15.08839054 93197,6917.883,95.438,541.239,538.257,0.0
51891.0,STARLINK-3549,PAYLOAD,2023-10-30 14:57:24,15.08834156,0.0001786,53.2174,264.5994,85.1657,274.9539,4.0277e-05,3.53e-06,0.0,0 STARLINK-3549,1 51891U 22022AR  23303.62320399  .00000353  00000-0  40277-4 0  9992,2 51891  53.2174 264.5994 0001786  85.1657 274.9539 15.08834156 93306,6917.898,95.438,540.999,538.528,0.0
51891.0,STARLINK-3549,PAYLOAD,2023-10-31 03:40:29,15.08835712,0.0001554,53.2174,262.217,93.7934,266.3235,0.00010459,1.377e-05,0.0,0 STARLINK-3549,1 51891U 22022AR  23304.15312481  .00001377  00000-0  10459-3 0  9999,2 51891  53.2174 262.2170 0001554  93.7934 266.3235 15.08835712 93388,6917.893,95.438,540.834,538.683,0.0
51891.0,STARLINK-3549,PAYLOAD,2023-10-31 14:48:11,15.08843769,0.0001652,53.2167,260.1371,92.7146,267.4035,0.00012755,1.743e-05,0.0,0 STARLINK-3549,1 51891U 22022AR  23304.61680233  .00001743  00000-0  12755-3 0  9991,2 51891  53.2167 260.1371 0001652  92.7146 267.4035 15.08843769 93452,6917.869,95.437,540.877,538.591,0.0
51891.0,STARLINK-3549,PAYLOAD,2023-11-01 03:31:16,15.08851132,0.0001622,53.2171,257.7567,99.2854,260.8322,0.0002242,3.283e-05,0.0,0 STARLINK-3549,1 51891U 22022AR  23305.14671790  .00003283  00000-0  22420-3 0  9999,2 51891  53.2171 257.7567 0001622  99.2854 260.8322 15.08851132 93539,6917.846,95.437,540.833,538.589,0.0
51891.0,STARLINK-3549,PAYLOAD,2023-11-02 03:22:03,15.08847778,0.0001573,53.2165,253.2985,99.5655,260.5515,0.00012652,1.727e-05,0.0,0 STARLINK-3549,1 51891U 22022AR  23306.14031821  .00001727  00000-0  12652-3 0  9992,2 51891  53.2165 253.2985 0001573  99.5655 260.5515 15.08847778 93682,6917.857,95.437,540.81,538.633,0.0
51891.0,STARLINK-3549,PAYLOAD,2023-11-02 06:32:49,15.08849706,0.0001564,53.2164,252.7019,102.9221,257.1946,0.00017892,2.561e-05,0.0,0 STARLINK-3549,1 51891U 22022AR  23306.27279679  .00002561  00000-0  17892-3 0  9999,2 51891  53.2164 252.7019 0001564 102.9221 257.1946 15.08849706 93707,6917.851,95.437,540.798,538.634,0.0
51891.0,STARLINK-3549,PAYLOAD,2023-11-03 03:12:50,15.08841572,0.0001437,53.2161,248.8374,93.1278,266.9879,6.4092e-06,-1.86e-06,0.0,0 STARLINK-3549,1 51891U 22022AR  23307.13392046 -.00000186  00000-0  64092-5 0  9997,2 51891  53.2161 248.8374 0001437  93.1278 266.9879 15.08841572 93836,6917.876,95.437,540.735,538.746,0.0
51891.0,STARLINK-3549,PAYLOAD,2023-11-03 12:45:09,15.08840669,0.0001411,53.2162,247.0514,91.4569,268.6585,3.1656e-05,2.16e-06,0.0,0 STARLINK-3549,1 51891U 22022AR  23307.53136111  .00000216  00000-0  31656-4 0  9992,2 51891  53.2162 247.0514 0001411  91.4569 268.6585 15.08840669 93895,6917.878,95.438,540.719,538.767,0.0
51891.0,STARLINK-3549,PAYLOAD,2023-11-04 04:39:01,15.08843597,0.0001449,53.218,244.082,98.8399,261.2757,6.2045e-05,7e-06,0.0,0 STARLINK-3549,1 51891U 22022AR  23308.19376247  .00000700  00000-0  62045-4 0  9995,2 51891  53.2180 244.0820 0001449  98.8399 261.2757 15.08843597 93999,6917.869,95.437,540.737,538.732,0.0
51891.0,STARLINK-3549,PAYLOAD,2023-11-04 12:35:56,15.08841315,0.0001455,53.2177,242.5952,92.7928,267.3231,4.6572e-06,-2.14e-06,0.0,0 STARLINK-3549,1 51891U 22022AR  23308.52496158 -.00000214  00000-0  46572-5 0  9995,2 51891  53.2177 242.5952 0001455  92.7928 267.3231 15.08841315 94049,6917.876,95.437,540.748,538.735,0.0
51891.0,STARLINK-3549,PAYLOAD,2023-11-05 04:29:47,15.08854082,0.0001427,53.2175,239.6183,89.3723,270.7432,0.00017549,2.507e-05,0.0,0 STARLINK-3549,1 51891U 22022AR  23309.18735478  .00002507  00000-0  17549-3 0  9995,2 51891  53.2175 239.6183 0001427  89.3723 270.7432 15.08854082 94141,6917.837,95.437,540.69,538.715,0.0
51891.0,STARLINK-3549,PAYLOAD,2023-11-05 12:26:43,15.08843884,0.0001386,53.2175,238.1305,88.9577,271.1574,8.8731e-05,1.125e-05,0.0,0 STARLINK-3549,1 51891U 22022AR  23309.51856142  .00001125  00000-0  88731-4 0  9991,2 51891  53.2175 238.1305 0001386  88.9577 271.1574 15.08843884 94192,6917.869,95.437,540.692,538.775,0.0
51891.0,STARLINK-3549,PAYLOAD,2023-11-06 02:45:09,15.0888891,0.0001478,53.2165,235.4571,79.7621,280.3538,0.00063809,9.895e-05,0.0,0 STARLINK-3549,1 51891U 22022AR  23310.11469428  .00009895  00000-0  63809-3 0  9996,2 51891  53.2165 235.4571 0001478  79.7621 280.3538 15.08888910 94287,6917.731,95.434,540.618,538.573,0.0
51891.0,STARLINK-3549,PAYLOAD,2023-11-06 04:20:31,15.08894596,0.000136,53.2172,235.158,95.7286,264.3862,0.00043647,6.676e-05,0.0,0 STARLINK-3549,1 51891U 22022AR  23310.18091484  .00006676  00000-0  43647-3 0  9998,2 51891  53.2172 235.1580 0001360  95.7286 264.3862 15.08894596 94297,6917.714,95.434,540.519,538.638,0.0
51891.0,STARLINK-3549,PAYLOAD,2023-11-06 12:17:29,15.08846561,0.000187,53.2163,233.6727,75.1675,284.9524,-2.8158e-05,-7.36e-06,0.0,0 STARLINK-3549,1 51891U 22022AR  23310.51215109 -.00000736  00000-0 -28158-4 0  9991,2 51891  53.2163 233.6727 0001870  75.1675 284.9524 15.08846561 94341,6917.86,95.437,541.019,538.432,0.0
51891.0,STARLINK-3549,PAYLOAD,2023-11-07 02:36:03,15.08793171,0.0001394,53.2177,230.9943,92.9343,267.1808,-0.00047805,-7.878e-05,0.0,0 STARLINK-3549,1 51891U 22022AR  23311.10837525 -.00007878  00000-0 -47805-3 0  9992,2 51891  53.2177 230.9943 0001394  92.9343 267.1808 15.08793171 94432,6918.024,95.441,540.853,538.924,0.0
51891.0,STARLINK-3549,PAYLOAD,2023-11-07 12:08:19,15.08832044,7.48e-05,53.218,229.2128,136.1949,223.9103,-0.0001707,-3.003e-05,0.0,0 STARLINK-3549,1 51891U 22022AR  23311.50578370 -.00003003  00000-0 -17070-3 0  9993,2 51891  53.2180 229.2128 0000748 136.1949 223.9103 15.08832044 94494,6917.905,95.438,540.287,539.252,0.0
51891.0,STARLINK-3549,PAYLOAD,2023-11-08 00:51:23,15.08856179,0.0001035,53.2186,226.8341,113.6089,246.5012,8.9843e-05,1.143e-05,0.0,0 STARLINK-3549,1 51891U 22022AR  23312.03568375  .00001143  00000-0  89843-4 0  9995,2 51891  53.2186 226.8341 0001035 113.6089 246.5012 15.08856179 94579,6917.831,95.437,540.412,538.98,0.0
51891.0,STARLINK-3549,PAYLOAD,2023-11-08 04:02:08,15.08876257,0.0001361,53.218,226.2383,104.6742,255.4401,-1.8643e-05,-5.85e-06,0.0,0 STARLINK-3549,1 51891U 22022AR  23312.16815362 -.00000585  00000-0 -18643-4 0  9991,2 51891  53.2180 226.2383 0001361 104.6742 255.4401 15.08876257 94593,6917.77,95.435,540.576,538.693,0.0
51891.0,STARLINK-3549,PAYLOAD,2023-11-08 21:31:24,15.08816298,0.0001272,53.2188,222.9681,111.9273,248.1855,0.00066105,0.00010242,0.0,0 STARLINK-3549,1 51891U 22022AR  23312.89681042  .00010242  00000-0  66105-3 0  9991,2 51891  53.2188 222.9681 0001272 111.9273 248.1855 15.08816298 94700,6917.953,95.439,540.698,538.938,0.0
51891.0,STARLINK-3549,PAYLOAD,2023-11-09 00:42:10,15.0882741,0.0001225,53.2179,222.3721,108.1453,251.9673,0.00072471,0.00011261,0.0,0 STARLINK-3549,1 51891U 22022AR  23313.02928401  .00011261  00000-0  72471-3 0  9995,2 51891  53.2179 222.3721 0001225 108.1453 251.9673 15.08827410 94725,6917.919,95.438,540.631,538.936,0.0
51891.0,STARLINK-3549,PAYLOAD,2023-11-09 22:57:34,15.08850604,0.0001316,53.2174,218.2092,115.916,244.1968,-2.2829e-05,-6.51e-06,0.0,0 STARLINK-3549,1 51891U 22022AR  23313.95665091 -.00000651  00000-0 -22829-4 0  9996,2 51891  53.2174 218.2092 0001316 115.9160 244.1968 15.08850604 94864,6917.848,95.437,540.623,538.803,0.0
51891.0,STARLINK-3549,PAYLOAD,2023-11-10 00:32:57,15.08848831,0.0001163,53.2172,217.9119,106.9902,253.1218,-3.1768e-05,-7.94e-06,0.0,0 STARLINK-3549,1 51891U 22022AR  23314.02289196 -.00000794  00000-0 -31768-4 0  9993,2 51891  53.2172 217.9119 0001163 106.9902 253.1218 15.08848831 94870,6917.853,95.437,540.523,538.914,0.0
51891.0,STARLINK-3549,PAYLOAD,2023-11-11 09:56:03,15.088506,0.0001322,53.217,211.6687,104.1153,255.9986,-0.00013736,-2.474e-05,0.0,0 STARLINK-3549,1 51891U 22022AR  23315.41392569 -.00002474  00000-0 -13736-3 0  9997,2 51891  53.2170 211.6687 0001322 104.1153 255.9986 15.08850600 95087,6917.848,95.437,540.628,538.798,0.0
51891.0,STARLINK-3549,PAYLOAD,2023-11-11 16:17:36,15.08836037,0.0001519,53.2175,210.4822,104.4801,255.6359,1.8343e-05,4e-08,0.0,0 STARLINK-3549,1 51891U 22022AR  23315.67889339  .00000004  00000-0  18343-4 0  9996,2 51891  53.2175 210.4822 0001519 104.4801 255.6359 15.08836037 95125,6917.893,95.438,540.808,538.707,0.0
51891.0,STARLINK-3549,PAYLOAD,2023-11-11 21:03:46,15.08829718,0.0001499,53.2178,209.589,101.7707,258.3454,-3.8957e-05,-9.08e-06,0.0,0 STARLINK-3549,1 51891U 22022AR  23315.87761990 -.00000908  00000-0 -38957-4 0  9998,2 51891  53.2178 209.5890 0001499 101.7707 258.3454 15.08829718 95151,6917.912,95.438,540.814,538.74,0.0
